NAVSTAR 48 (USA 151)    
1 26407U 00040A   26200.28496955  .00000051  00000+0  00000+0 0  9995
2 26407  54.8481 213.8872 0120399 302.7967 116.6545  2.00557942190596
NAVSTAR 51 (USA 166)    
1 27663U 03005A   26200.64212289  .00000055  00000+0  00000+0 0  9994
2 27663  54.8785 213.6792 0148382  53.1867  40.3574  2.00558849171967
NAVSTAR 54 (USA 177)    
1 28190U 04009A   26199.89017126 -.00000048  00000+0  00000+0 0  9995
2 28190  54.8035 274.4049 0117297 174.5065 248.5717  2.00553630163583
NAVSTAR 56 (USA 180)    
1 28474U 04045A   26198.67621534 -.00000098  00000+0  00000+0 0  9994
2 28474  55.1165 323.6683 0170225 317.1195  14.5735  2.00557200159039
NAVSTAR 57 (USA 183)    
1 28874U 05038A   26200.25264721 -.00000045  00000+0  00000+0 0  9992
2 28874  54.8522 271.8818 0128284 296.4647  58.1733  2.00563490152470
INMARSAT 4-F2           
1 28899U 05044A   26200.50606508 -.00000267  00000+0  00000+0 0  9993
2 28899   5.1373  43.6791 0002880  61.6466 157.6414  1.00271241 75844
NAVSTAR 58 (USA 190)    
1 29486U 06042A   26200.54466350  .00000037  00000+0  00000+0 0  9992
2 29486  54.7131 150.0543 0107303  55.2816  49.2294  2.00568023145041
NAVSTAR 59 (USA 192)    
1 29601U 06052A   26200.32808055  .00000052  00000+0  00000+0 0  9997
2 29601  54.9319 212.7321 0084746  91.0060 269.9916  2.00559939144052
NAVSTAR 60 (USA 196)    
1 32260U 07047A   26200.63392293 -.00000060  00000+0  00000+0 0  9993
2 32260  54.1192  78.7281 0167937  88.0942 273.8872  2.00553792137465
COSMOS 2433 [GLONASS-M] 
1 32275U 07052A   26198.88664809 -.00000070  00000+0  00000+0 0  9994
2 32275  65.5578 314.9006 0003631 203.8821 156.1180  2.13104037145718
COSMOS 2432 [GLONASS-M] 
1 32276U 07052B   26200.42877255 -.00000079  00000+0  00000+0 0  9999
2 32276  65.5728 314.9771 0007373 321.3714  85.4621  2.13103034145775
NAVSTAR 61 (USA 199)    
1 32384U 07062A   26200.42475249 -.00000047  00000+0  00000+0 0  9992
2 32384  55.0061 272.8552 0036069 167.8410 169.2189  2.00561903136159
COSMOS 2434 [GLONASS-M] 
1 32393U 07065A   26199.49568220  .00000065  00000+0  00000+0 0  9990
2 32393  64.3202 190.8597 0001233 326.9616  29.9549  2.13101158144436
COSMOS 2436 [GLONASS-M] 
1 32395U 07065C   26200.26988979  .00000073  00000+0  00000+0 0  9996
2 32395  64.3288 190.9062 0017323 353.6303   9.4043  2.13099955144418
NAVSTAR 62 (USA 201)    
1 32711U 08012A   26199.04649594  .00000031  00000+0  00000+0 0  9995
2 32711  54.5003 148.6919 0211705 248.1782 109.5290  2.00573231134376
NAVSTAR 64 (USA 206)    
1 35752U 09043A   26200.54628317 -.00000090  00000+0  00000+0 0  9992
2 35752  56.2306  26.1820 0053676  84.5808 285.6534  2.00552603124019
COSMOS 2456 [GLONASS-M] 
1 36111U 09070A   26197.17812943 -.00000016  00000+0  00000+0 0  9994
2 36111  65.0282  69.9837 0003619 341.3386 195.9451  2.13103565129042
COSMOS 2457 [GLONASS-M] 
1 36112U 09070B   26200.30541185 -.00000044  00000+0  00000+0 0  9993
2 36112  65.0158  69.7202 0004235 121.8633  61.6895  2.13100981129118
COSMOS 2460 [GLONASS-M] 
1 36402U 10007C   26199.35669755 -.00000072  00000+0  00000+0 0  9994
2 36402  65.4006 313.4121 0001849 148.1871  29.5036  2.13101436127393
NAVSTAR 65 (USA 213)    
1 36585U 10022A   26200.37301477  .00000056  00000+0  00000+0 0  9993
2 36585  54.2683 207.2654 0126832  66.1582 299.0499  2.00564007118245
BEIDOU-2 IGSO-1         
1 36828U 10036A   26198.83967113 -.00000112  00000+0  00000+0 0  9994
2 36828  54.3070 162.6827 0058852 225.1686 317.0611  1.00263080 58404
BEIDOU-2 G4             
1 37210U 10057A   26200.50946067 -.00000119  00000+0  00000+0 0  9993
2 37210   3.7257  68.7488 0005457 185.8434  26.0421  1.00272622 57610
BEIDOU-2 IGSO-2         
1 37256U 10068A   26198.92294310 -.00000202  00000+0  00000+0 0  9997
2 37256  47.4899 271.4483 0056956 213.9138 250.9288  1.00272861 57107
BEIDOU-2 IGSO-3         
1 37384U 11013A   26200.49843839 -.00000176  00000+0  00000+0 0  9992
2 37384  62.4524  39.8452 0035663 183.4558 359.6554  1.00259758 55989
GSAT-8                  
1 37605U 11022A   26200.55998757  .00000079  00000+0  00000+0 0  9996
2 37605   2.2129  81.4300 0002568 153.5033 319.0884  1.00271184 53540
BEIDOU-2 IGSO-4         
1 37763U 11038A   26199.86161028 -.00000026  00000+0  00000+0 0  9995
2 37763  54.6051 165.3909 0160237 231.4789 304.3437  1.00278571 54964
GSAT0101 (GALILEO-PFM)  
1 37846U 11060A   26198.93738454 -.00000105  00000+0  00000+0 0  9990
2 37846  56.9832 340.9281 0002114  62.8592 297.1517  1.70475655 91642
GSAT0102 (GALILEO-FM2)  
1 37847U 11060B   26196.51364557 -.00000101  00000+0  00000+0 0  9998
2 37847  56.9849 340.9943 0002108   7.4765 350.6813  1.70475846 91608
COSMOS 2476 [GLONASS-M] 
1 37867U 11064A   26199.17433977 -.00000032  00000+0  00000+0 0  9995
2 37867  65.2874  71.8256 0022067 235.6441 301.3919  2.13103618114429
COSMOS 2477 [GLONASS-M] 
1 37868U 11064B   26200.37594390 -.00000043  00000+0  00000+0 0  9990
2 37868  65.2948  71.8648 0019062 236.5942 322.5208  2.13102797114449
COSMOS 2475 [GLONASS-M] 
1 37869U 11064C   26200.41318713 -.00000044  00000+0  00000+0 0  9990
2 37869  65.3016  71.8854 0024569 250.6224 292.0479  2.13101651114454
